NOAA 15                 
1 25338U 98030A   25213.18917692  .00000196  00000+0  98280-4 0  9993
2 25338  98.5338 237.0500 0009851 198.8512 161.2305 14.27005127415909
DMSP 5D-3 F16 (USA 172) 
1 28054U 03048A   25213.21498941  .00000057  00000+0  53770-4 0  9992
2 28054  99.0128 229.5242 0006787 341.7983  96.5464 14.14363015124233
NOAA 18                 
1 28654U 05018A   25213.21160873  .00000090  00000+0  70865-4 0  9998
2 28654  98.8409 292.0935 0013794 344.5306  15.5443 14.13623225 41189
METEOSAT-9 (MSG-2)      
1 28912U 05049B   25211.70059405  .00000124  00000+0  00000+0 0  9996
2 28912   8.6250  57.2460 0000493 325.6621 223.6595  1.00267183  3788
EWS-G1 (GOES 13)        
1 29155U 06018A   25212.46955325 -.00000208  00000+0  00000+0 0  9997
2 29155   3.6949  80.3722 0059273 267.4959  93.7007  0.98789087 40089
DMSP 5D-3 F17 (USA 191) 
1 29522U 06050A   25213.18597014  .00000096  00000+0  72416-4 0  9997
2 29522  98.7397 221.3170 0008971 247.4674 112.5550 14.14843982967162
FENGYUN 3A              
1 32958U 08026A   25212.82897416  .00000083  00000+0  60096-4 0  9995
2 32958  98.6489 155.3385 0008308 338.6405  21.4424 14.19458376889955
NOAA 19                 
1 33591U 09005A   25213.15576114  .00000151  00000+0  10441-3 0  9997
2 33591  98.9945 278.1485 0013284 211.4484 148.5895 14.13396884849530
GOES 14                 
1 35491U 09033A   25212.59805868 -.00000065  00000+0  00000+0 0  9998
2 35491   0.8477  87.4016 0003195  80.0229 249.4425  1.00275475  3379
DMSP 5D-3 F18 (USA 210) 
1 35951U 09057A   25213.19696273  .00000273  00000+0  16501-3 0  9997
2 35951  98.8630 190.3936 0012335  81.2931 278.9638 14.14662738814321
EWS-G2 (GOES 15)        
1 36411U 10008A   25212.56029150  .00000043  00000+0  00000+0 0  9999
2 36411   0.4517  85.3207 0003934 114.6426  12.5677  1.00275236 56423
COMS 1                  
1 36744U 10032A   25212.57346490 -.00000341  00000+0  00000+0 0  9997
2 36744   3.9970  79.3915 0000876  44.5068 160.0823  1.00271233 47871
FENGYUN 3B              
1 37214U 10059A   25213.22426257  .00000075  00000+0  62715-4 0  9991
2 37214  99.0102 252.1070 0022346  15.9362  62.6298 14.14742260762223
SUOMI NPP               
1 37849U 11061A   25213.19383394  .00000070  00000+0  54156-4 0  9994
2 37849  98.7581 151.8843 0002013 128.6059 231.5297 14.19549662713038
METEOSAT-10 (MSG-3)     
1 38552U 12035B   25212.33402516 -.00000001  00000+0  00000+0 0  9990
2 38552   3.9083  62.0192 0000878   3.9230   3.8975  1.00266669 47647
METOP-B                 
1 38771U 12049A   25213.11908786  .00000095  00000+0  63071-4 0  9999
2 38771  98.5738 265.8479 0001415 134.0762 226.0532 14.21469220667788
INSAT-3D                
1 39216U 13038B   25212.93071366 -.00000332  00000+0  00000+0 0  9990
2 39216   1.0949  86.9332 0001383  44.2952 283.1511  1.00272840 44090
FENGYUN 3C              
1 39260U 13052A   25213.23373976  .00000092  00000+0  67674-4 0  9998
2 39260  98.4580 197.5394 0013824 221.2659 138.7471 14.15639552613360
METEOR-M 2              
1 40069U 14037A   25213.20754990  .00000151  00000+0  88302-4 0  9994
2 40069  98.4716 196.0236 0004603 241.3726 118.6989 14.21314137573869
HIMAWARI-8              
1 40267U 14060A   25212.57597824 -.00000269  00000+0  00000+0 0  9995
2 40267   0.0386 241.2124 0001425 255.7265 160.4967  1.00271783 39530
FENGYUN 2G              
1 40367U 14090A   25212.56783154 -.00000300  00000+0  00000+0 0  9997
2 40367   4.8242  76.7365 0003641 161.3968  15.3595  1.00277317 38786
METEOSAT-11 (MSG-4)     
1 40732U 15034A   25212.90680796  .00000069  00000+0  00000+0 0  9999
2 40732   2.3972  72.3552 0001073 124.1983  89.0087  1.00276577 36808
ELEKTRO-L 2             
1 41105U 15074A   25212.40249291 -.00000115  00000+0  00000+0 0  9997
2 41105   5.8817  74.4902 0001199 160.6620 204.5276  1.00270381 35296
INSAT-3DR               
1 41752U 16054A   25212.56271818 -.00000071  00000+0  00000+0 0  9992
2 41752   0.0348  98.1285 0010449 165.7052 322.1466  1.00272287 32607
HIMAWARI-9              
1 41836U 16064A   25212.57597824 -.00000269  00000+0  00000+0 0  9994
2 41836   0.0399 257.9314 0001300 267.1329 132.4539  1.00269107 32086
GOES 16                 
1 41866U 16071A   25212.57753225 -.00000084  00000+0  00000+0 0  9999
2 41866   0.0303 116.6730 0001437  55.0044 240.9336  1.00271924 31883
FENGYUN 4A              
1 41882U 16077A   25212.57259822 -.00000351  00000+0  00000+0 0  9994
2 41882   1.5024  83.8235 0006453 166.4278  29.0601  1.00271094 31767
CYGFM05                 
1 41884U 16078A   25213.18622406  .00014209  00000+0  32622-3 0  9992
2 41884  34.9597 195.2258 0008446   6.7376 353.3456 15.41791186479201
CYGFM04                 
1 41885U 16078B   25213.20936282  .00016388  00000+0  35113-3 0  9994
2 41885  34.9345 173.0788 0007087  31.2316 328.8824 15.43830168479417
CYGFM02                 
1 41886U 16078C   25212.92671319  .00016524  00000+0  34340-3 0  9993
2 41886  34.9435 174.7840 0008845  23.9680 336.1451 15.44710267479326
CYGFM01                 
1 41887U 16078D   25212.31802153  .00014061  00000+0  31879-3 0  9997
2 41887  34.9427 204.0768 0008489 345.9375  14.1107 15.42166874478907
CYGFM08                 
1 41888U 16078E   25212.27188584  .00015278  00000+0  33489-3 0  9998
2 41888  34.9455 188.7305 0009715  11.9759 348.1190 15.43144955479116
CYGFM07                 
1 41890U 16078G   25212.90746870  .00015711  00000+0  33745-3 0  9996
2 41890  34.9473 174.3429 0007408  36.2249 323.8972 15.43763357479221
CYGFM03                 
1 41891U 16078H   25212.92120708  .00015502  00000+0  33589-3 0  9999
2 41891  34.9428 175.9792 0006859  17.3743 342.7211 15.43509385479203
FENGYUN 3D              
1 43010U 17072A   25213.18039624  .00000153  00000+0  94119-4 0  9997
2 43010  98.9658 177.6476 0000597 201.5132 158.6018 14.19629470399584
NOAA 20 (JPSS-1)        
1 43013U 17073A   25213.13931968  .00000071  00000+0  54353-4 0  9993
2 43013  98.7411 151.0410 0001939 104.9928 255.1463 14.19548972399063
GOES 17                 
1 43226U 18022A   25212.95853378 -.00000175  00000+0  00000+0 0  9992
2 43226   0.1106  98.9037 0001525 138.0163 328.4633  1.00272273 27224
FENGYUN 2H              
1 43491U 18050A   25212.56384485 -.00000125  00000+0  00000+0 0  9997
2 43491   2.2019  82.9404 0002059 116.9697  31.7683  1.00274064 26223
METOP-C                 
1 43689U 18087A   25213.15413767  .00000029  00000+0  33151-4 0  9998
2 43689  98.7125 272.8186 0001720  55.6387 304.4953 14.21476535349363
GEO-KOMPSAT-2A          
1 43823U 18100A   25212.93045366 -.00000337  00000+0  00000+0 0  9990
2 43823   0.0055 257.6051 0002238 206.9643 308.4117  1.00269469 24459
METEOR-M2 2             
1 44387U 19038A   25213.18802414  .00000085  00000+0  56745-4 0  9991
2 44387  98.8782 191.3963 0000940 159.2883 200.8334 14.24220431315744
ARKTIKA-M 1             
1 47719U 21016A   25211.49656771 -.00000083  00000+0  00000+0 0  9994
2 47719  63.1530 102.0790 7132664 268.7394  16.3279  2.00614715 32330
FENGYUN 3E              
1 49008U 21062A   25213.13595818  .00000008  00000+0  24248-4 0  9996
2 49008  98.7437 215.2281 0000665 329.3773  30.7364 14.19856161211169
GOES 18                 
1 51850U 22021A   25212.94908707  .00000104  00000+0  00000+0 0  9995
2 51850   0.0024 244.4458 0000412 295.5272 334.4916  1.00273072 12596
NOAA 21 (JPSS-2)        
1 54234U 22150A   25212.82288720  .00000053  00000+0  46101-4 0  9990
2 54234  98.7274 150.9436 0002380  48.8709 311.2672 14.19547455141096
METEOSAT-12 (MTG-I1)    
1 54743U 22170C   25212.33385183 -.00000001  00000+0  00000+0 0  9991
2 54743   0.6781  33.6260 0001580  93.4665 301.9664  1.00274721  9769
TIANMU-1 03             
1 55973U 23039A   25213.14821039  .00012119  00000+0  34535-3 0  9993
2 55973  97.5053  12.6557 0004333 153.3921 206.7546 15.36226228131522
TIANMU-1 04             
1 55974U 23039B   25213.15255784  .00011999  00000+0  33922-3 0  9997
2 55974  97.4981  11.9183 0005184 152.5963 207.5555 15.36476180131524
TIANMU-1 05             
1 55975U 23039C   25213.18396100  .00012133  00000+0  34610-3 0  9995
2 55975  97.5028  12.4244 0003626 171.8328 188.2975 15.36198376131518
TIANMU-1 06             
1 55976U 23039D   25213.16043601  .00012147  00000+0  34257-3 0  9991
2 55976  97.5042  12.7633 0004110 168.8690 191.2646 15.36551909131522
METEOR-M2 3             
1 57166U 23091A   25213.19025959 -.00000006  00000+0  16285-4 0  9995
2 57166  98.6580 268.9023 0004457  35.2153 324.9320 14.24005377108973
TIANMU-1 07             
1 57399U 23101A   25213.15276245  .00006880  00000+0  27318-3 0  9990
2 57399  97.3077 266.0258 0004517 167.6307 192.5043 15.25638795112777
TIANMU-1 08             
1 57400U 23101B   25213.18453967  .00006300  00000+0  25036-3 0  9996
2 57400  97.3066 265.8768 0006306 178.7521 181.3734 15.25637441112770
TIANMU-1 09             
1 57401U 23101C   25213.17008598  .00007003  00000+0  27841-3 0  9999
2 57401  97.3020 265.4561 0005529 175.9950 184.1334 15.25588313112779
TIANMU-1 10             
1 57402U 23101D   25213.13766214  .00006486  85043-8  25588-3 0  9991
2 57402  97.3101 266.1338 0007332 180.7422 179.3807 15.25571562112760
FENGYUN 3F              
1 57490U 23111A   25213.19361508  .00000032  00000+0  35852-4 0  9990
2 57490  98.7246 283.5275 0000772  86.0365 274.0899 14.19849204103453
ARKTIKA-M 2             
1 58584U 23198A   25211.73813472  .00000180  00000+0  00000+0 0  9996
2 58584  63.2308 189.5925 6867293 268.6558  18.5680  2.00597860 11876
TIANMU-1 11             
1 58645U 23205A   25213.21689158  .00005952  00000+0  25912-3 0  9995
2 58645  97.3716 235.2799 0011221  59.7581 300.4765 15.22544652 88762
TIANMU-1 12             
1 58646U 23205B   25213.16931372  .00005894  00000+0  25695-3 0  9991
2 58646  97.3702 235.0816 0009102  51.2707 308.9341 15.22517942 88741
TIANMU-1 13             
1 58647U 23205C   25213.13716933  .00006343  00000+0  27652-3 0  9998
2 58647  97.3731 235.2006 0008606  32.9302 327.2469 15.22493936 88732
TIANMU-1 14             
1 58648U 23205D   25213.18550638  .00005945  00000+0  25913-3 0  9997
2 58648  97.3660 234.7210 0009772  36.0316 324.1578 15.22513302 88748
TIANMU-1 19             
1 58660U 23208A   25213.25138580  .00007910  00000+0  32191-3 0  9990
2 58660  97.4307 324.9797 0005900  23.4966 336.6540 15.24766678 88467
TIANMU-1 20             
1 58661U 23208B   25213.21151117  .00007600  00000+0  29837-3 0  9997
2 58661  97.4244 325.2563 0008574  28.7757 331.3953 15.25969909 88518
TIANMU-1 21             
1 58662U 23208C   25213.20936410  .00008824  00000+0  32553-3 0  9992
2 58662  97.4288 326.6260 0007997  26.4887 333.6760 15.27989416 88588
TIANMU-1 22             
1 58663U 23208D   25213.17355310  .00007285  00000+0  29722-3 0  9997
2 58663  97.4303 324.9992 0005081  48.6983 311.4691 15.24714625 88464
TIANMU-1 15             
1 58700U 24004A   25212.92381245  .00006286  00000+0  27492-3 0  9994
2 58700  97.4673  35.0790 0007798  49.9603 310.2316 15.22402798 86970
TIANMU-1 16             
1 58701U 24004B   25213.16985471  .00006077  00000+0  26551-3 0  9996
2 58701  97.4608  34.8274 0008202  53.5043 306.6947 15.22448104 87019
TIANMU-1 17             
1 58702U 24004C   25213.15078227  .00005770  00000+0  25111-3 0  9998
2 58702  97.4646  35.1647 0006890  55.9521 304.2369 15.22608708 87007
TIANMU-1 18             
1 58703U 24004D   25213.13635991  .00005883  00000+0  25682-3 0  9992
2 58703  97.4663  35.3091 0006528  46.4880 313.6898 15.22500776 87000
INSAT-3DS               
1 58990U 24033A   25212.56436486 -.00000150  00000+0  00000+0 0  9992
2 58990   0.0528 259.0489 0001333 239.4055  96.2250  1.00270832 43850
METEOR-M2 4             
1 59051U 24039A   25213.19190696  .00000032  00000+0  34060-4 0  9993
2 59051  98.6526 172.3610 0007562  25.1265 335.0279 14.22373392 73778
GOES 19                 
1 60133U 24119A   25212.46175322 -.00000242  00000+0  00000+0 0  9999
2 60133   0.0115  88.3959 0000239 142.0664 169.8852  1.00271934  3741
